ONEWEB-0720             
1 55835U 23029AR  26153.79414164  .00000024  00000+0  26413-4 0  9990
2 55835  87.9157 307.8461 0001505  93.3534 266.7771 13.19726779156945
ONEWEB-0537             
1 56046U 23043A   26154.21115714  .00000134  00000+0  31743-3 0  9991
2 56046  87.9107 231.5461 0002199 103.7314 256.4062 13.16593846157124
ONEWEB-0538             
1 56047U 23043B   26154.20482629  .00000199  00000+0  48564-3 0  9993
2 56047  87.9106 231.5501 0002010 112.8261 247.3082 13.16593764157134
ONEWEB-0546             
1 56048U 23043C   26154.26815962  .00000028  00000+0  40347-4 0  9993
2 56048  87.9105 231.5375 0002638 105.8702 254.2720 13.16593867157131
ONEWEB-0547             
1 56049U 23043D   26154.24428403  .00000065  00000+0  12585-3 0  9995
2 56049  87.9262 246.7474 0001839 104.3609 255.7729 13.21824550156389
ONEWEB-0548             
1 56050U 23043E   26154.21670027  .00000118  00000+0  27568-3 0  9991
2 56050  87.9104 231.5440 0002250  89.0715 271.0674 13.16595457157124
ONEWEB-0549             
1 56051U 23043F   26154.23840088  .00000068  00000+0  13383-3 0  9994
2 56051  87.9256 246.7557 0001850 110.0063 250.1271 13.21825074156381
ONEWEB-0550             
1 56052U 23043G   26154.22495599  .00000098  00000+0  20457-3 0  9990
2 56052  87.9258 246.7556 0002047  96.0685 264.0683 13.21825170156383
ONEWEB-0551             
1 56053U 23043H   26154.23674316 -.00000012  00000+0 -64739-4 0  9998
2 56053  87.8998 262.0060 0001732 111.5439 248.5876 13.15548633154563
ONEWEB-0552             
1 56054U 23043J   26154.21990503  .00000098  00000+0  20526-3 0  9993
2 56054  87.9256 246.7631 0001838  97.0163 263.1180 13.21827342156381
ONEWEB-0553             
1 56055U 23043K   26154.19849008  .00000085  00000+0  18966-3 0  9995
2 56055  87.9105 231.5520 0002453 101.6320 258.5087 13.16592834157132
ONEWEB-0554             
1 56056U 23043L   26154.26182513  .00000081  00000+0  17788-3 0  9992
2 56056  87.9102 231.5483 0002216  93.2358 266.9026 13.16594016157121
ONEWEB-0555             
1 56057U 23043M   26154.22382187 -.00000192  00000+0 -53645-3 0  9995
2 56057  87.9104 231.5432 0002783 104.9364 255.2075 13.16597018157124
ONEWEB-0557             
1 56058U 23043N   26154.23806625  .00000029  00000+0  40989-4 0  9990
2 56058  87.9106 231.5510 0003199  88.7154 271.4344 13.16593905157122
ONEWEB-0558             
1 56059U 23043P   26154.21317080  .00000142  00000+0  31341-3 0  9998
2 56059  87.9260 246.7585 0001932 107.8920 252.2425 13.21827171156397
ONEWEB-0559             
1 56060U 23043Q   26154.20139000  .00000114  00000+0  24340-3 0  9993
2 56060  87.9259 246.7555 0001787 102.0575 258.0760 13.21826738156401
ONEWEB-0566             
1 56061U 23043R   26154.27037199  .00000080  00000+0  16163-3 0  9993
2 56061  87.9258 246.7399 0001687 104.7467 255.3854 13.21825871156394
