[{"OBJECT_NAME":"ONEWEB-0720","OBJECT_ID":"2023-029AR","EPOCH":"2026-06-02T19:03:33.837696","MEAN_MOTION":13.19726779,"ECCENTRICITY":0.0001505,"INCLINATION":87.9157,"RA_OF_ASC_NODE":307.8461,"ARG_OF_PERICENTER":93.3534,"MEAN_ANOMALY":266.7771,"EPHEMERIS_TYPE":0,"CLASSIFICATION_TYPE":"U","NORAD_CAT_ID":55835,"ELEMENT_SET_NO":999,"REV_AT_EPOCH":15694,"BSTAR":2.6413e-05,"MEAN_MOTION_DOT":2.4e-07,"MEAN_MOTION_DDOT":0.0},{"OBJECT_NAME":"ONEWEB-0537","OBJECT_ID":"2023-043A","EPOCH":"2026-06-03T05:04:03.976896","MEAN_MOTION":13.16593846,"ECCENTRICITY":0.0002199,"INCLINATION":87.9107,"RA_OF_ASC_NODE":231.5461,"ARG_OF_PERICENTER":103.7314,"MEAN_ANOMALY":256.4062,"EPHEMERIS_TYPE":0,"CLASSIFICATION_TYPE":"U","NORAD_CAT_ID":56046,"ELEMENT_SET_NO":999,"REV_AT_EPOCH":15712,"BSTAR":0.00031743,"MEAN_MOTION_DOT":1.34e-06,"MEAN_MOTION_DDOT":0.0},{"OBJECT_NAME":"ONEWEB-0538","OBJECT_ID":"2023-043B","EPOCH":"2026-06-03T04:54:56.991456","MEAN_MOTION":13.16593764,"ECCENTRICITY":0.000201,"INCLINATION":87.9106,"RA_OF_ASC_NODE":231.5501,"ARG_OF_PERICENTER":112.8261,"MEAN_ANOMALY":247.3082,"EPHEMERIS_TYPE":0,"CLASSIFICATION_TYPE":"U","NORAD_CAT_ID":56047,"ELEMENT_SET_NO":999,"REV_AT_EPOCH":15713,"BSTAR":0.00048564,"MEAN_MOTION_DOT":1.99e-06,"MEAN_MOTION_DDOT":0.0},{"OBJECT_NAME":"ONEWEB-0546","OBJECT_ID":"2023-043C","EPOCH":"2026-06-03T06:26:08.991168","MEAN_MOTION":13.16593867,"ECCENTRICITY":0.0002638,"INCLINATION":87.9105,"RA_OF_ASC_NODE":231.5375,"ARG_OF_PERICENTER":105.8702,"MEAN_ANOMALY":254.272,"EPHEMERIS_TYPE":0,"CLASSIFICATION_TYPE":"U","NORAD_CAT_ID":56048,"ELEMENT_SET_NO":999,"REV_AT_EPOCH":15713,"BSTAR":4.0347e-05,"MEAN_MOTION_DOT":2.8e-07,"MEAN_MOTION_DDOT":0.0},{"OBJECT_NAME":"ONEWEB-0547","OBJECT_ID":"2023-043D","EPOCH":"2026-06-03T05:51:46.140192","MEAN_MOTION":13.2182455,"ECCENTRICITY":0.0001839,"INCLINATION":87.9262,"RA_OF_ASC_NODE":246.7474,"ARG_OF_PERICENTER":104.3609,"MEAN_ANOMALY":255.7729,"EPHEMERIS_TYPE":0,"CLASSIFICATION_TYPE":"U","NORAD_CAT_ID":56049,"ELEMENT_SET_NO":999,"REV_AT_EPOCH":15638,"BSTAR":0.00012585,"MEAN_MOTION_DOT":6.5e-07,"MEAN_MOTION_DDOT":0.0},{"OBJECT_NAME":"ONEWEB-0548","OBJECT_ID":"2023-043E","EPOCH":"2026-06-03T05:12:02.903328","MEAN_MOTION":13.16595457,"ECCENTRICITY":0.000225,"INCLINATION":87.9104,"RA_OF_ASC_NODE":231.544,"ARG_OF_PERICENTER":89.0715,"MEAN_ANOMALY":271.0674,"EPHEMERIS_TYPE":0,"CLASSIFICATION_TYPE":"U","NORAD_CAT_ID":56050,"ELEMENT_SET_NO":999,"REV_AT_EPOCH":15712,"BSTAR":0.00027568,"MEAN_MOTION_DOT":1.18e-06,"MEAN_MOTION_DDOT":0.0},{"OBJECT_NAME":"ONEWEB-0549","OBJECT_ID":"2023-043F","EPOCH":"2026-06-03T05:43:17.836032","MEAN_MOTION":13.21825074,"ECCENTRICITY":0.000185,"INCLINATION":87.9256,"RA_OF_ASC_NODE":246.7557,"ARG_OF_PERICENTER":110.0063,"MEAN_ANOMALY":250.1271,"EPHEMERIS_TYPE":0,"CLASSIFICATION_TYPE":"U","NORAD_CAT_ID":56051,"ELEMENT_SET_NO":999,"REV_AT_EPOCH":15638,"BSTAR":0.00013383,"MEAN_MOTION_DOT":6.8e-07,"MEAN_MOTION_DDOT":0.0},{"OBJECT_NAME":"ONEWEB-0550","OBJECT_ID":"2023-043G","EPOCH":"2026-06-03T05:23:56.197536","MEAN_MOTION":13.2182517,"ECCENTRICITY":0.0002047,"INCLINATION":87.9258,"RA_OF_ASC_NODE":246.7556,"ARG_OF_PERICENTER":96.0685,"MEAN_ANOMALY":264.0683,"EPHEMERIS_TYPE":0,"CLASSIFICATION_TYPE":"U","NORAD_CAT_ID":56052,"ELEMENT_SET_NO":999,"REV_AT_EPOCH":15638,"BSTAR":0.00020457,"MEAN_MOTION_DOT":9.8e-07,"MEAN_MOTION_DDOT":0.0},{"OBJECT_NAME":"ONEWEB-0551","OBJECT_ID":"2023-043H","EPOCH":"2026-06-03T05:40:54.609024","MEAN_MOTION":13.15548633,"ECCENTRICITY":0.0001732,"INCLINATION":87.8998,"RA_OF_ASC_NODE":262.006,"ARG_OF_PERICENTER":111.5439,"MEAN_ANOMALY":248.5876,"EPHEMERIS_TYPE":0,"CLASSIFICATION_TYPE":"U","NORAD_CAT_ID":56053,"ELEMENT_SET_NO":999,"REV_AT_EPOCH":15456,"BSTAR":-6.4739e-05,"MEAN_MOTION_DOT":-1.2e-07,"MEAN_MOTION_DDOT":0.0},{"OBJECT_NAME":"ONEWEB-0552","OBJECT_ID":"2023-043J","EPOCH":"2026-06-03T05:16:39.794592","MEAN_MOTION":13.21827342,"ECCENTRICITY":0.0001838,"INCLINATION":87.9256,"RA_OF_ASC_NODE":246.7631,"ARG_OF_PERICENTER":97.0163,"MEAN_ANOMALY":263.118,"EPHEMERIS_TYPE":0,"CLASSIFICATION_TYPE":"U","NORAD_CAT_ID":56054,"ELEMENT_SET_NO":999,"REV_AT_EPOCH":15638,"BSTAR":0.00020526,"MEAN_MOTION_DOT":9.8e-07,"MEAN_MOTION_DDOT":0.0},{"OBJECT_NAME":"ONEWEB-0553","OBJECT_ID":"2023-043K","EPOCH":"2026-06-03T04:45:49.542912","MEAN_MOTION":13.16592834,"ECCENTRICITY":0.0002453,"INCLINATION":87.9105,"RA_OF_ASC_NODE":231.552,"ARG_OF_PERICENTER":101.632,"MEAN_ANOMALY":258.5087,"EPHEMERIS_TYPE":0,"CLASSIFICATION_TYPE":"U","NORAD_CAT_ID":56055,"ELEMENT_SET_NO":999,"REV_AT_EPOCH":15713,"BSTAR":0.00018966,"MEAN_MOTION_DOT":8.5e-07,"MEAN_MOTION_DDOT":0.0},{"OBJECT_NAME":"ONEWEB-0554","OBJECT_ID":"2023-043L","EPOCH":"2026-06-03T06:17:01.691232","MEAN_MOTION":13.16594016,"ECCENTRICITY":0.0002216,"INCLINATION":87.9102,"RA_OF_ASC_NODE":231.5483,"ARG_OF_PERICENTER":93.2358,"MEAN_ANOMALY":266.9026,"EPHEMERIS_TYPE":0,"CLASSIFICATION_TYPE":"U","NORAD_CAT_ID":56056,"ELEMENT_SET_NO":999,"REV_AT_EPOCH":15712,"BSTAR":0.00017788000000000002,"MEAN_MOTION_DOT":8.1e-07,"MEAN_MOTION_DDOT":0.0},{"OBJECT_NAME":"ONEWEB-0555","OBJECT_ID":"2023-043M","EPOCH":"2026-06-03T05:22:18.209568","MEAN_MOTION":13.16597018,"ECCENTRICITY":0.0002783,"INCLINATION":87.9104,"RA_OF_ASC_NODE":231.5432,"ARG_OF_PERICENTER":104.9364,"MEAN_ANOMALY":255.2075,"EPHEMERIS_TYPE":0,"CLASSIFICATION_TYPE":"U","NORAD_CAT_ID":56057,"ELEMENT_SET_NO":999,"REV_AT_EPOCH":15712,"BSTAR":-0.00053645,"MEAN_MOTION_DOT":-1.92e-06,"MEAN_MOTION_DDOT":0.0},{"OBJECT_NAME":"ONEWEB-0557","OBJECT_ID":"2023-043N","EPOCH":"2026-06-03T05:42:48.924000","MEAN_MOTION":13.16593905,"ECCENTRICITY":0.0003199,"INCLINATION":87.9106,"RA_OF_ASC_NODE":231.551,"ARG_OF_PERICENTER":88.7154,"MEAN_ANOMALY":271.4344,"EPHEMERIS_TYPE":0,"CLASSIFICATION_TYPE":"U","NORAD_CAT_ID":56058,"ELEMENT_SET_NO":999,"REV_AT_EPOCH":15712,"BSTAR":4.0989e-05,"MEAN_MOTION_DOT":2.9e-07,"MEAN_MOTION_DDOT":0.0},{"OBJECT_NAME":"ONEWEB-0558","OBJECT_ID":"2023-043P","EPOCH":"2026-06-03T05:06:57.957120","MEAN_MOTION":13.21827171,"ECCENTRICITY":0.0001932,"INCLINATION":87.926,"RA_OF_ASC_NODE":246.7585,"ARG_OF_PERICENTER":107.892,"MEAN_ANOMALY":252.2425,"EPHEMERIS_TYPE":0,"CLASSIFICATION_TYPE":"U","NORAD_CAT_ID":56059,"ELEMENT_SET_NO":999,"REV_AT_EPOCH":15639,"BSTAR":0.00031341,"MEAN_MOTION_DOT":1.42e-06,"MEAN_MOTION_DDOT":0.0},{"OBJECT_NAME":"ONEWEB-0559","OBJECT_ID":"2023-043Q","EPOCH":"2026-06-03T04:50:00.096000","MEAN_MOTION":13.21826738,"ECCENTRICITY":0.0001787,"INCLINATION":87.9259,"RA_OF_ASC_NODE":246.7555,"ARG_OF_PERICENTER":102.0575,"MEAN_ANOMALY":258.076,"EPHEMERIS_TYPE":0,"CLASSIFICATION_TYPE":"U","NORAD_CAT_ID":56060,"ELEMENT_SET_NO":999,"REV_AT_EPOCH":15640,"BSTAR":0.0002434,"MEAN_MOTION_DOT":1.14e-06,"MEAN_MOTION_DDOT":0.0},{"OBJECT_NAME":"ONEWEB-0566","OBJECT_ID":"2023-043R","EPOCH":"2026-06-03T06:29:20.139936","MEAN_MOTION":13.21825871,"ECCENTRICITY":0.0001687,"INCLINATION":87.9258,"RA_OF_ASC_NODE":246.7399,"ARG_OF_PERICENTER":104.7467,"MEAN_ANOMALY":255.3854,"EPHEMERIS_TYPE":0,"CLASSIFICATION_TYPE":"U","NORAD_CAT_ID":56061,"ELEMENT_SET_NO":999,"REV_AT_EPOCH":15639,"BSTAR":0.00016163,"MEAN_MOTION_DOT":8e-07,"MEAN_MOTION_DDOT":0.0}]